#aV2019  9 11  0  0  0.00000000     288 DD+AD WGS84 FIT  NGA
## 2070 259200.00000000   300.00000000 58737 0.0000000000000
+   31     1  2  3  5  6  7  8  9 10 11 12 13 14 15 16 17 18
+         19 20 21 22 23 24 25 26 27 28 29 30 31 32  0  0  0
+          0  0  0  0  0  0  0  0  0  0  0  0  0  0  0  0  0
+          0  0  0  0  0  0  0  0  0  0  0  0  0  0  0  0  0
+          0  0  0  0  0  0  0  0  0  0  0  0  0  0  0  0  0
++         2  2  2  2  2  2  2  2  2  2  2  2  2  2  2  2  2
++         2  2  2  2  2  2  2  2  2  2  2  2  2  2  0  0  0
++         0  0  0  0  0  0  0  0  0  0  0  0  0  0  0  0  0
++         0  0  0  0  0  0  0  0  0  0  0  0  0  0  0  0  0
++         0  0  0  0  0  0  0  0  0  0  0  0  0  0  0  0  0
%c cc cc ccc ccc cccc cccc cccc cccc ccccc ccccc ccccc ccccc
%c cc cc ccc ccc cccc cccc cccc cccc ccccc ccccc ccccc ccccc
%f  0.0000000  0.000000000  0.00000000000  0.000000000000000
%f  0.0000000  0.000000000  0.00000000000  0.000000000000000
%i    0    0    0    0      0      0      0      0         0
%i    0    0    0    0      0      0      0      0         0
/*      NGA, ST. LOUIS,MO.                                  
/*   EPHEMERIS COMPUTED FROM 2 DAYS OF DATA                 
/*   EPOCHA v5 SMOOTHER                                     
/*   G1762 IERS2010 SATAF SATAPC                            
*  2019  9 11  6 55  0.00000000
P  1   4257.841331 -17010.805037 -20050.399190   -125.043076                    
V  1  23121.263111  -9755.556722  13628.514903     -0.123963                    
P  2 -20780.050528  15812.604571   5042.139119   -302.553197                    
V  2  -6380.685515    217.294304 -30870.203316     -0.081889                    
P  3  -7193.683149 -19202.490680 -16984.745197     -9.808165                    
V  3  18611.208964  10729.543597 -19988.905959     -0.038738                    
P  5 -13204.549925   9315.946253  20975.998095     -1.318774                    
V  5 -22321.058058 -15108.101874  -7095.353950     -0.003222                    
P  6 -24370.419750   4694.159392  -9458.303443    -53.680023                    
V  6   9923.676596  -7130.321952 -28957.206838     -0.123761                    
P  7 -12452.258579 -10778.543574  21201.226381   -103.931833                    
V  7  23564.825442 -11485.086775   7633.410505     -0.079772                    
P  8   5247.523973 -25358.233786   5411.793432     -6.054208                    
V  8   2185.332607   7008.986981  31108.880560     -0.013265                    
P  9  -8728.920880 -20767.894707  14017.612677    -28.371338                    
V  9   3431.462886 -17723.710125 -24051.775512     -0.094651                    
P 10  23613.552749  10349.550790  -6770.532352    -49.095221                    
V 10   5772.537405   6853.569512  30122.409750     -0.151703                    
P 11   4250.838017 -22711.737176 -13873.283127   -510.367055                    
V 11  12762.514990 -11312.087475  23020.114803      0.107635                    
P 12   2349.467134  18322.266564 -19358.392447    205.169545                    
V 12 -19435.420956 -14141.266848 -15762.076659     -0.037942                    
P 13 -12788.164061  19440.410177  12633.719744    -44.971045                    
V 13   1065.326931 -16346.693709  26060.822839      0.020556                    
P 14  15386.049854  -5984.440333 -20440.786642    -61.943656                    
V 14  -3073.147739  26586.025127 -10117.457029      0.019768                    
P 15  -2503.053697  25857.954183   4123.257479   -287.802279                    
V 15  -4263.476770  -5566.809428  30673.591783      0.027102                    
P 16  14741.933527  -6152.613985  21112.137019    -73.062236                    
V 16  20690.571108  17502.906947  -8845.032465     -0.034625                    
P 17 -14050.042049  -4060.444619 -21762.048353    123.383724                    
V 17   3845.201560 -28304.697605   2667.207314      0.070821                    
P 18  12232.982016 -18651.327747 -14845.801215     84.823027                    
V 18  16847.684956  -6779.005401  23299.747227      0.028983                    
P 19 -15320.851978   3236.264556 -21759.172158   -268.828895                    
V 19   4282.213588 -26509.160474  -7023.679878      0.051329                    
P 20  22298.013276  14203.550648   3297.950557    526.824254                    
V 20  -5456.007095   1189.362907  30610.641844      0.001392                    
P 21  16338.598732   7503.127344  20286.931448   -120.840041                    
V 21 -20494.585862  12806.508700  12440.297112      0.064810                    
P 22    143.815287 -17211.631390 -20029.192328   -753.645583                    
V 22  23159.878353  11933.049370  -9885.766054     -0.038772                    
P 23  -1534.807052 -26040.226414   4056.986651   -167.500751                    
V 23   3857.108178  -4602.278208 -31057.252180      0.020398                    
P 24  -6048.246411  18486.620791 -18097.180311     -2.005107                    
V 24 -21022.507714   9208.939180  16923.033710     -0.005411                    
P 25  15724.346064  19178.030402 -10061.359327    -11.690017                    
V 25 -11354.454676  -5327.168283 -28253.103040     -0.015804                    
P 26  21499.182601    480.896835  15691.925451     36.266147                    
V 26  15635.812820  12495.659776 -21599.104079      0.088305                    
P 27  12044.058027 -17157.626134  16011.238136    -51.935203                    
V 27    255.441692  20696.643298  22122.778190     -0.120968                    
P 28 -22202.519816 -12469.800773  -6748.598820    762.516544                    
V 28  -5790.174183  -7727.614778  30700.893318     -0.011471                    
P 29   5112.737399  22846.426002  12486.887406    100.958334                    
V 29  -3903.453316  15485.215896 -26680.039497     -0.101490                    
P 30 -21391.586984  -3153.013751  15586.592075    -38.300838                    
V 30  17192.905647  -9905.124750  21441.466815     -0.079650                    
P 31  25141.905745  -5517.344504  -7446.881619     11.171517                    
V 31  -7563.829689   5950.707834 -29532.657250     -0.026073                    
P 32  14969.811340   3748.904532 -21562.076404     52.668605                    
V 32  -2102.282639  27452.782694   3181.407502      0.137821                    
EOF
